[
    {
        "CCSDS_OMM_VERS": "3.0",
        "COMMENT": "GENERATED VIA SPACE-TRACK.ORG API",
        "CREATION_DATE": "2025-03-02T18:08:23",
        "ORIGINATOR": "18 SPCS",
        "OBJECT_NAME": "NAVSTAR 74 (USA 262)",
        "OBJECT_ID": "2015-033A",
        "CENTER_NAME": "EARTH",
        "REF_FRAME": "TEME",
        "TIME_SYSTEM": "UTC",
        "MEAN_ELEMENT_THEORY": "SGP4",
        "EPOCH": "2025-03-01T01:44:18.863520",
        "MEAN_MOTION": "2.00553637",
        "ECCENTRICITY": "0.01042130",
        "INCLINATION": "54.3703",
        "RA_OF_ASC_NODE": "286.5474",
        "ARG_OF_PERICENTER": "23.5183",
        "MEAN_ANOMALY": "337.0147",
        "EPHEMERIS_TYPE": "0",
        "CLASSIFICATION_TYPE": "U",
        "NORAD_CAT_ID": "40730",
        "ELEMENT_SET_NO": "999",
        "REV_AT_EPOCH": "7050",
        "BSTAR": "0.00000000000000",
        "MEAN_MOTION_DOT": "0.00000007",
        "MEAN_MOTION_DDOT": "0.0000000000000",
        "SEMIMAJOR_AXIS": "26561.228",
        "PERIOD": "718.012",
        "APOAPSIS": "20459.895",
        "PERIAPSIS": "19906.290",
        "OBJECT_TYPE": "PAYLOAD",
        "RCS_SIZE": "LARGE",
        "COUNTRY_CODE": "US",
        "LAUNCH_DATE": "2015-07-15",
        "SITE": "AFETR",
        "DECAY_DATE": null,
        "FILE": "4657142",
        "GP_ID": "282085256",
        "TLE_LINE0": "0 NAVSTAR 74 (USA 262)",
        "TLE_LINE1": "1 40730U 15033A   25060.07244055  .00000007  00000-0  00000-0 0  9993",
        "TLE_LINE2": "2 40730  54.3703 286.5474 0104213  23.5183 337.0147  2.00553637 70505"
    }
]